start=new Date('2021-10-21T00:00:00.000Z').valueOf();
sats=[{"MEAN_MOTION_DOT":"-0.00001182","COUNTRY_CODE":"US","GP_ID":"187758351","EPHEMERIS_TYPE":"0","PERIAPSIS":"546.138","SEMIMAJOR_AXIS":"6925.362","ARG_OF_PERICENTER":"80.3461","PERIOD":"95.592","CENTER_NAME":"EARTH","OBJECT_ID":"2021-041AV","MEAN_MOTION":"15.06395578","INCLINATION":"53.0548","DECAY_DATE":null,"REF_FRAME":"TEME","TLE_LINE2":"2 48596  53.0548 128.1183 0001572  80.3461 279.7706 15.06395578 24238","MEAN_MOTION_DDOT":"0.0000000000000","ECCENTRICITY":"0.00015720","ELEMENT_SET_NO":"999","EPOCH":"2021-10-20T20:05:57.878880","APOAPSIS":"548.316","OBJECT_NAME":"STARLINK-2253","MEAN_ELEMENT_THEORY":"SGP4","FILE":"3175135","NORAD_CAT_ID":"48596","OBJECT_TYPE":"PAYLOAD","REV_AT_EPOCH":"2423","CLASSIFICATION_TYPE":"U","SITE":"AFETR","RA_OF_ASC_NODE":"128.1183","LAUNCH_DATE":"2021-05-15","TIME_SYSTEM":"UTC","BSTAR":"-0.00006048900000","RCS_SIZE":"LARGE","MEAN_ANOMALY":"279.7706","TLE_LINE1":"1 48596U 21041AV  21293.83747545 -.00001182  00000-0 -60489-4 0  9995"},{"GP_ID":"187757928","EPHEMERIS_TYPE":"0","PERIAPSIS":"545.835","COUNTRY_CODE":"US","MEAN_MOTION_DOT":"-0.00000363","ARG_OF_PERICENTER":"87.0145","SEMIMAJOR_AXIS":"6925.358","MEAN_MOTION":"15.06397058","OBJECT_ID":"2021-041AW","PERIOD":"95.592","CENTER_NAME":"EARTH","REF_FRAME":"TEME","TLE_LINE2":"2 48597  53.0562 128.3878 0002004  87.0145 273.1074 15.06397058 25032","INCLINATION":"53.0562","DECAY_DATE":null,"EPOCH":"2021-10-20T18:41:03.095520","OBJECT_NAME":"STARLINK-2255","APOAPSIS":"548.610","ECCENTRICITY":"0.00020040","MEAN_MOTION_DDOT":"0.0000000000000","ELEMENT_SET_NO":"999","NORAD_CAT_ID":"48597","OBJECT_TYPE":"PAYLOAD","FILE":"3175135","MEAN_ELEMENT_THEORY":"SGP4","RA_OF_ASC_NODE":"128.3878","LAUNCH_DATE":"2021-05-15","TIME_SYSTEM":"UTC","SITE":"AFETR","REV_AT_EPOCH":"2503","CLASSIFICATION_TYPE":"U","TLE_LINE1":"1 48597U 21041AW  21293.77850805 -.00000363  00000-0 -54740-5 0  9997","MEAN_ANOMALY":"273.1074","RCS_SIZE":"LARGE","BSTAR":"-0.00000547400000"},{"CENTER_NAME":"EARTH","PERIOD":"95.593","MEAN_MOTION":"15.06384652","OBJECT_ID":"2021-041AX","REF_FRAME":"TEME","TLE_LINE2":"2 48598  53.0556 128.0755 0001444  80.4540 279.6612 15.06384652 24236","INCLINATION":"53.0556","DECAY_DATE":null,"COUNTRY_CODE":"US","MEAN_MOTION_DOT":"-0.00001003","EPHEMERIS_TYPE":"0","GP_ID":"187758150","PERIAPSIS":"546.261","SEMIMAJOR_AXIS":"6925.396","ARG_OF_PERICENTER":"80.4540","SITE":"AFETR","REV_AT_EPOCH":"2423","CLASSIFICATION_TYPE":"U","LAUNCH_DATE":"2021-05-15","RA_OF_ASC_NODE":"128.0755","TIME_SYSTEM":"UTC","RCS_SIZE":"LARGE","BSTAR":"-0.00004844300000","TLE_LINE1":"1 48598U 21041AX  21293.84853735 -.00001003  00000-0 -48443-4 0  9995","MEAN_ANOMALY":"279.6612","EPOCH":"2021-10-20T20:21:53.627040","APOAPSIS":"548.261","OBJECT_NAME":"STARLINK-2256","MEAN_MOTION_DDOT":"0.0000000000000","ECCENTRICITY":"0.00014440","ELEMENT_SET_NO":"999","FILE":"3175135","MEAN_ELEMENT_THEORY":"SGP4","NORAD_CAT_ID":"48598","OBJECT_TYPE":"PAYLOAD"},{"SEMIMAJOR_AXIS":"6925.340","ARG_OF_PERICENTER":"85.9229","MEAN_MOTION_DOT":"0.00000771","COUNTRY_CODE":"US","EPHEMERIS_TYPE":"0","GP_ID":"187758039","PERIAPSIS":"546.089","INCLINATION":"53.0547","DECAY_DATE":null,"REF_FRAME":"TEME","TLE_LINE2":"2 48599  53.0547 103.5374 0001612  85.9229 274.1944 15.06402779 25389","PERIOD":"95.592","CENTER_NAME":"EARTH","OBJECT_ID":"2021-041AY","MEAN_MOTION":"15.06402779","MEAN_ELEMENT_THEORY":"SGP4","FILE":"3175135","NORAD_CAT_ID":"48599","OBJECT_TYPE":"PAYLOAD","MEAN_MOTION_DDOT":"0.0000000000000","ECCENTRICITY":"0.00016120","ELEMENT_SET_NO":"999","EPOCH":"2021-10-20T17:48:38.437920","APOAPSIS":"548.321","OBJECT_NAME":"STARLINK-2274","BSTAR":"0.00007063700000","RCS_SIZE":"LARGE","MEAN_ANOMALY":"274.1944","TLE_LINE1":"1 48599U 21041AY  21293.74211155  .00000771  00000-0  70637-4 0  9998","REV_AT_EPOCH":"2538","CLASSIFICATION_TYPE":"U","SITE":"AFETR","LAUNCH_DATE":"2021-05-15","RA_OF_ASC_NODE":"103.5374","TIME_SYSTEM":"UTC"},{"MEAN_ELEMENT_THEORY":"SGP4","FILE":"3175135","NORAD_CAT_ID":"48600","OBJECT_TYPE":"PAYLOAD","ECCENTRICITY":"0.00019330","MEAN_MOTION_DDOT":"0.0000000000000","ELEMENT_SET_NO":"999","EPOCH":"2021-10-20T18:42:21.728160","OBJECT_NAME":"STARLINK-2275","APOAPSIS":"548.568","BSTAR":"-0.00004467600000","RCS_SIZE":"LARGE","MEAN_ANOMALY":"284.0350","TLE_LINE1":"1 48600U 21041AZ  21293.77941815 -.00000947  00000-0 -44676-4 0  9998","REV_AT_EPOCH":"2517","CLASSIFICATION_TYPE":"U","SITE":"AFETR","LAUNCH_DATE":"2021-05-15","RA_OF_ASC_NODE":"118.3849","TIME_SYSTEM":"UTC","SEMIMAJOR_AXIS":"6925.364","ARG_OF_PERICENTER":"76.0854","MEAN_MOTION_DOT":"-0.00000947","COUNTRY_CODE":"US","EPHEMERIS_TYPE":"0","GP_ID":"187758251","PERIAPSIS":"545.891","INCLINATION":"53.0517","DECAY_DATE":null,"REF_FRAME":"TEME","TLE_LINE2":"2 48600  53.0517 118.3849 0001933  76.0854 284.0350 15.06394840 25178","PERIOD":"95.592","CENTER_NAME":"EARTH","OBJECT_ID":"2021-041AZ","MEAN_MOTION":"15.06394840"},{"ARG_OF_PERICENTER":"81.1805","SEMIMAJOR_AXIS":"6925.333","PERIAPSIS":"545.878","EPHEMERIS_TYPE":"0","GP_ID":"187757581","COUNTRY_CODE":"US","MEAN_MOTION_DOT":"-0.00000596","TLE_LINE2":"2 48602  53.0371 103.7801 0001906  81.1805 278.9399 15.06405183 25366","REF_FRAME":"TEME","DECAY_DATE":null,"INCLINATION":"53.0371","MEAN_MOTION":"15.06405183","OBJECT_ID":"2021-041BB","CENTER_NAME":"EARTH","PERIOD":"95.592","OBJECT_TYPE":"PAYLOAD","NORAD_CAT_ID":"48602","FILE":"3175135","MEAN_ELEMENT_THEORY":"SGP4","OBJECT_NAME":"STARLINK-2713","APOAPSIS":"548.518","EPOCH":"2021-10-20T17:00:51.027552","ELEMENT_SET_NO":"999","ECCENTRICITY":"0.00019060","MEAN_MOTION_DDOT":"0.0000000000000","TLE_LINE1":"1 48602U 21041BB  21293.70892393 -.00000596  00000-0 -21087-4 0  9990","MEAN_ANOMALY":"278.9399","RCS_SIZE":"LARGE","BSTAR":"-0.00002108700000","TIME_SYSTEM":"UTC","RA_OF_ASC_NODE":"103.7801","LAUNCH_DATE":"2021-05-15","SITE":"AFETR","REV_AT_EPOCH":"2536","CLASSIFICATION_TYPE":"U"},{"NORAD_CAT_ID":"48603","OBJECT_TYPE":"PAYLOAD","FILE":"3175135","MEAN_ELEMENT_THEORY":"SGP4","EPOCH":"2021-10-20T18:06:32.279328","OBJECT_NAME":"STARLINK-2714","APOAPSIS":"548.603","MEAN_MOTION_DDOT":"0.0000000000000","ECCENTRICITY":"0.00019260","ELEMENT_SET_NO":"999","TLE_LINE1":"1 48603U 21041BC  21293.75454027  .00001095  00000-0  92471-4 0  9992","MEAN_ANOMALY":"275.6407","RCS_SIZE":"LARGE","BSTAR":"0.00009247100000","RA_OF_ASC_NODE":"98.5244","LAUNCH_DATE":"2021-05-15","TIME_SYSTEM":"UTC","SITE":"AFETR","CLASSIFICATION_TYPE":"U","REV_AT_EPOCH":"2545","ARG_OF_PERICENTER":"84.4801","SEMIMAJOR_AXIS":"6925.404","EPHEMERIS_TYPE":"0","GP_ID":"187757805","PERIAPSIS":"545.935","COUNTRY_CODE":"US","MEAN_MOTION_DOT":"0.00001095","REF_FRAME":"TEME","TLE_LINE2":"2 48603  53.0502  98.5244 0001926  84.4801 275.6407 15.06381947 25454","INCLINATION":"53.0502","DECAY_DATE":null,"MEAN_MOTION":"15.06381947","OBJECT_ID":"2021-041BC","PERIOD":"95.593","CENTER_NAME":"EARTH"},{"MEAN_MOTION_DOT":"-0.00000525","COUNTRY_CODE":"US","GP_ID":"187757693","EPHEMERIS_TYPE":"0","PERIAPSIS":"545.846","SEMIMAJOR_AXIS":"6925.368","ARG_OF_PERICENTER":"80.0252","PERIOD":"95.593","CENTER_NAME":"EARTH","OBJECT_ID":"2021-041BD","MEAN_MOTION":"15.06393607","INCLINATION":"53.0548","DECAY_DATE":null,"REF_FRAME":"TEME","TLE_LINE2":"2 48604  53.0548 128.1833 0002003  80.0252 280.0963 15.06393607 25046","MEAN_MOTION_DDOT":"0.0000000000000","ECCENTRICITY":"0.00020030","ELEMENT_SET_NO":"999","EPOCH":"2021-10-20T19:44:44.346336","APOAPSIS":"548.620","OBJECT_NAME":"STARLINK-2757","MEAN_ELEMENT_THEORY":"SGP4","FILE":"3175135","NORAD_CAT_ID":"48604","OBJECT_TYPE":"PAYLOAD","CLASSIFICATION_TYPE":"U","REV_AT_EPOCH":"2504","SITE":"AFETR","RA_OF_ASC_NODE":"128.1833","LAUNCH_DATE":"2021-05-15","TIME_SYSTEM":"UTC","BSTAR":"-0.00001636300000","RCS_SIZE":"LARGE","MEAN_ANOMALY":"280.0963","TLE_LINE1":"1 48604U 21041BD  21293.82273549 -.00000525  00000-0 -16363-4 0  9994"},{"PERIOD":"95.593","CENTER_NAME":"EARTH","OBJECT_ID":"2021-044A","MEAN_MOTION":"15.06391405","DECAY_DATE":null,"INCLINATION":"53.0560","TLE_LINE2":"2 48638  53.0560 103.3928 0001944  76.0412 284.0793 15.06391405 22487","REF_FRAME":"TEME","MEAN_MOTION_DOT":"-0.00001371","COUNTRY_CODE":"US","PERIAPSIS":"545.894","GP_ID":"187757933","EPHEMERIS_TYPE":"0","SEMIMAJOR_AXIS":"6925.375","ARG_OF_PERICENTER":"76.0412","REV_AT_EPOCH":"2248","CLASSIFICATION_TYPE":"U","SITE":"AFETR","TIME_SYSTEM":"UTC","RA_OF_ASC_NODE":"103.3928","LAUNCH_DATE":"2021-05-26","BSTAR":"-0.00007317100000","RCS_SIZE":"LARGE","MEAN_ANOMALY":"284.0793","TLE_LINE1":"1 48638U 21044A   21293.77433585 -.00001371  00000-0 -73171-4 0  9996","ELEMENT_SET_NO":"999","MEAN_MOTION_DDOT":"0.0000000000000","ECCENTRICITY":"0.00019440","APOAPSIS":"548.586","OBJECT_NAME":"STARLINK-2758","EPOCH":"2021-10-20T18:35:02.617440","MEAN_ELEMENT_THEORY":"SGP4","FILE":"3175135","OBJECT_TYPE":"PAYLOAD","NORAD_CAT_ID":"48638"},{"ARG_OF_PERICENTER":"83.4474","SEMIMAJOR_AXIS":"6925.320","PERIAPSIS":"545.988","GP_ID":"187758155","EPHEMERIS_TYPE":"0","MEAN_MOTION_DOT":"0.00000542","COUNTRY_CODE":"US","DECAY_DATE":null,"INCLINATION":"53.0543","TLE_LINE2":"2 48639  53.0543 103.4571 0001728  83.4474 276.6711 15.06409406 22482","REF_FRAME":"TEME","OBJECT_ID":"2021-044B","MEAN_MOTION":"15.06409406","PERIOD":"95.592","CENTER_NAME":"EARTH","OBJECT_TYPE":"PAYLOAD","NORAD_CAT_ID":"48639","MEAN_ELEMENT_THEORY":"SGP4","FILE":"3175135","ELEMENT_SET_NO":"999","ECCENTRICITY":"0.00017280","MEAN_MOTION_DDOT":"0.0000000000000","APOAPSIS":"548.381","OBJECT_NAME":"STARLINK-2739","EPOCH":"2021-10-20T18:13:48.029088","MEAN_ANOMALY":"276.6711","TLE_LINE1":"1 48639U 21044B   21293.75958367  .00000542  00000-0  55290-4 0  9994","BSTAR":"0.00005529000000","RCS_SIZE":"LARGE","TIME_SYSTEM":"UTC","LAUNCH_DATE":"2021-05-26","RA_OF_ASC_NODE":"103.4571","CLASSIFICATION_TYPE":"U","REV_AT_EPOCH":"2248","SITE":"AFETR"}];
